SL-16 R/B               
1 22285U 92093B   25308.15757466  .00000069  00000+0  59759-4 0  9994
2 22285  71.0201 267.7844 0003361 170.5191 189.5996 14.15418058695393
COSMOS 2228             
1 22286U 92094A   25308.11213394  .00002290  00000+0  19895-3 0  9993
2 22286  82.5203 357.4886 0018210   9.9517 350.2062 14.96466861757273
SL-16 R/B               
1 22566U 93016B   25307.90277792 -.00000177  00000+0 -66608-4 0  9996
2 22566  71.0049 119.3694 0009497 167.9628 192.1724 14.15278665684374
COSMOS 2242             
1 22626U 93024A   25307.64053528  .00002626  00000+0  23214-3 0  9996
2 22626  82.5224  27.2032 0016664  14.5117 345.6579 14.95862826761544
SL-16 R/B               
1 22803U 93059B   25308.19420160 -.00000153  00000+0 -51945-4 0  9990
2 22803  70.9891 275.7661 0015683  34.7548 325.4597 14.17202167661750
ARIANE 40 R/B           
1 22830U 93061H   25308.13955044  .00000288  00000+0  12159-3 0  9991
2 22830  98.5123  14.3635 0009654 298.4134  61.6077 14.32763840676129
COSMOS 2278             
1 23087U 94023A   25308.06129851  .00000061  00000+0  56352-4 0  9999
2 23087  71.0519  77.9277 0010414 229.3362 130.6857 14.14331420627043
SL-16 R/B               
1 23088U 94023B   25308.16528125  .00000003  00000+0  25943-4 0  9996
2 23088  71.0009 334.4963 0001903 177.2370 182.8763 14.14992979628334
SL-16 R/B               
1 23343U 94074B   25308.11965109  .00000581  00000+0  84933-4 0  9993
2 23343  97.7255 338.9497 0005108 270.6679 157.0624 14.79220656668687
SL-16 R/B               
1 23405U 94077B   25308.12517567  .00000103  00000+0  77106-4 0  9991
2 23405  70.9816 256.6458 0003526 315.2137  44.8700 14.15538676598462
ARIANE 40+ R/B          
1 23561U 95021B   25308.16245662  .00000392  00000+0  13919-3 0  9993
2 23561  98.4697  16.2095 0007388 150.3437 263.4553 14.39648408601185
SL-16 R/B               
1 23705U 95058B   25308.12593972  .00000273  00000+0  16403-3 0  9998
2 23705  71.0206  83.8698 0014353 305.4522  54.5260 14.15473439550085
