CCSDS_OMM_VERS = 2.0
CREATION_DATE  = 
ORIGINATOR     = 

OBJECT_NAME    = SL-16 R/B
OBJECT_ID      = 1992-093B
CENTER_NAME    = EARTH
REF_FRAME      = TEME
TIME_SYSTEM    = UTC
MEAN_ELEMENT_THEORY = SGP/SGP4

EPOCH          = 2025-11-04T03:46:54.450624
MEAN_MOTION    = 14.15418058
ECCENTRICITY   = .0003361
INCLINATION    = 71.0201
RA_OF_ASC_NODE = 267.7844
ARG_OF_PERICENTER = 170.5191
MEAN_ANOMALY   = 189.5996

EPHEMERIS_TYPE = 0
CLASSIFICATION_TYPE = U
NORAD_CAT_ID   = 22285
ELEMENT_SET_NO = 999
REV_AT_EPOCH   = 69539
BSTAR          = .59759E-4
MEAN_MOTION_DOT = .69E-6
MEAN_MOTION_DDOT = 0

CCSDS_OMM_VERS = 2.0
CREATION_DATE  = 
ORIGINATOR     = 

OBJECT_NAME    = COSMOS 2228
OBJECT_ID      = 1992-094A
CENTER_NAME    = EARTH
REF_FRAME      = TEME
TIME_SYSTEM    = UTC
MEAN_ELEMENT_THEORY = SGP/SGP4

EPOCH          = 2025-11-04T02:41:28.372416
MEAN_MOTION    = 14.96466861
ECCENTRICITY   = .001821
INCLINATION    = 82.5203
RA_OF_ASC_NODE = 357.4886
ARG_OF_PERICENTER = 9.9517
MEAN_ANOMALY   = 350.2062

EPHEMERIS_TYPE = 0
CLASSIFICATION_TYPE = U
NORAD_CAT_ID   = 22286
ELEMENT_SET_NO = 999
REV_AT_EPOCH   = 75727
BSTAR          = .19895E-3
MEAN_MOTION_DOT = .229E-4
MEAN_MOTION_DDOT = 0

CCSDS_OMM_VERS = 2.0
CREATION_DATE  = 
ORIGINATOR     = 

OBJECT_NAME    = SL-16 R/B
OBJECT_ID      = 1993-016B
CENTER_NAME    = EARTH
REF_FRAME      = TEME
TIME_SYSTEM    = UTC
MEAN_ELEMENT_THEORY = SGP/SGP4

EPOCH          = 2025-11-03T21:40:00.012288
MEAN_MOTION    = 14.15278665
ECCENTRICITY   = .0009497
INCLINATION    = 71.0049
RA_OF_ASC_NODE = 119.3694
ARG_OF_PERICENTER = 167.9628
MEAN_ANOMALY   = 192.1724

EPHEMERIS_TYPE = 0
CLASSIFICATION_TYPE = U
NORAD_CAT_ID   = 22566
ELEMENT_SET_NO = 999
REV_AT_EPOCH   = 68437
BSTAR          = -.66608E-4
MEAN_MOTION_DOT = -.177E-5
MEAN_MOTION_DDOT = 0

CCSDS_OMM_VERS = 2.0
CREATION_DATE  = 
ORIGINATOR     = 

OBJECT_NAME    = COSMOS 2242
OBJECT_ID      = 1993-024A
CENTER_NAME    = EARTH
REF_FRAME      = TEME
TIME_SYSTEM    = UTC
MEAN_ELEMENT_THEORY = SGP/SGP4

EPOCH          = 2025-11-03T15:22:22.248192
MEAN_MOTION    = 14.95862826
ECCENTRICITY   = .00166645
INCLINATION    = 82.5224
RA_OF_ASC_NODE = 27.2032
ARG_OF_PERICENTER = 14.5117
MEAN_ANOMALY   = 345.6579

EPHEMERIS_TYPE = 0
CLASSIFICATION_TYPE = U
NORAD_CAT_ID   = 22626
ELEMENT_SET_NO = 999
REV_AT_EPOCH   = 76154
BSTAR          = .23214464E-3
MEAN_MOTION_DOT = .2626E-4
MEAN_MOTION_DDOT = 0

CCSDS_OMM_VERS = 2.0
CREATION_DATE  = 
ORIGINATOR     = 

OBJECT_NAME    = SL-16 R/B
OBJECT_ID      = 1993-059B
CENTER_NAME    = EARTH
REF_FRAME      = TEME
TIME_SYSTEM    = UTC
MEAN_ELEMENT_THEORY = SGP/SGP4

EPOCH          = 2025-11-04T04:39:39.018240
MEAN_MOTION    = 14.17202167
ECCENTRICITY   = .0015683
INCLINATION    = 70.9891
RA_OF_ASC_NODE = 275.7661
ARG_OF_PERICENTER = 34.7548
MEAN_ANOMALY   = 325.4597

EPHEMERIS_TYPE = 0
CLASSIFICATION_TYPE = U
NORAD_CAT_ID   = 22803
ELEMENT_SET_NO = 999
REV_AT_EPOCH   = 66175
BSTAR          = -.51945E-4
MEAN_MOTION_DOT = -.153E-5
MEAN_MOTION_DDOT = 0

CCSDS_OMM_VERS = 2.0
CREATION_DATE  = 
ORIGINATOR     = 

OBJECT_NAME    = ARIANE 40 R/B
OBJECT_ID      = 1993-061H
CENTER_NAME    = EARTH
REF_FRAME      = TEME
TIME_SYSTEM    = UTC
MEAN_ELEMENT_THEORY = SGP/SGP4

EPOCH          = 2025-11-04T03:20:57.158016
MEAN_MOTION    = 14.32763840
ECCENTRICITY   = .0009654
INCLINATION    = 98.5123
RA_OF_ASC_NODE = 14.3635
ARG_OF_PERICENTER = 298.4134
MEAN_ANOMALY   = 61.6077

EPHEMERIS_TYPE = 0
CLASSIFICATION_TYPE = U
NORAD_CAT_ID   = 22830
ELEMENT_SET_NO = 999
REV_AT_EPOCH   = 67612
BSTAR          = .12159E-3
MEAN_MOTION_DOT = .288E-5
MEAN_MOTION_DDOT = 0

CCSDS_OMM_VERS = 2.0
CREATION_DATE  = 
ORIGINATOR     = 

OBJECT_NAME    = COSMOS 2278
OBJECT_ID      = 1994-023A
CENTER_NAME    = EARTH
REF_FRAME      = TEME
TIME_SYSTEM    = UTC
MEAN_ELEMENT_THEORY = SGP/SGP4

EPOCH          = 2025-11-04T01:28:16.191264
MEAN_MOTION    = 14.14331420
ECCENTRICITY   = .0010414
INCLINATION    = 71.0519
RA_OF_ASC_NODE = 77.9277
ARG_OF_PERICENTER = 229.3362
MEAN_ANOMALY   = 130.6857

EPHEMERIS_TYPE = 0
CLASSIFICATION_TYPE = U
NORAD_CAT_ID   = 23087
ELEMENT_SET_NO = 999
REV_AT_EPOCH   = 62704
BSTAR          = .56352E-4
MEAN_MOTION_DOT = .61E-6
MEAN_MOTION_DDOT = 0

CCSDS_OMM_VERS = 2.0
CREATION_DATE  = 
ORIGINATOR     = 

OBJECT_NAME    = SL-16 R/B
OBJECT_ID      = 1994-023B
CENTER_NAME    = EARTH
REF_FRAME      = TEME
TIME_SYSTEM    = UTC
MEAN_ELEMENT_THEORY = SGP/SGP4

EPOCH          = 2025-11-04T03:58:00.300000
MEAN_MOTION    = 14.14992979
ECCENTRICITY   = .0001903
INCLINATION    = 71.0009
RA_OF_ASC_NODE = 334.4963
ARG_OF_PERICENTER = 177.2370
MEAN_ANOMALY   = 182.8763

EPHEMERIS_TYPE = 0
CLASSIFICATION_TYPE = U
NORAD_CAT_ID   = 23088
ELEMENT_SET_NO = 999
REV_AT_EPOCH   = 62833
BSTAR          = .25943E-4
MEAN_MOTION_DOT = .3E-7
MEAN_MOTION_DDOT = 0

CCSDS_OMM_VERS = 2.0
CREATION_DATE  = 
ORIGINATOR     = 

OBJECT_NAME    = SL-16 R/B
OBJECT_ID      = 1994-074B
CENTER_NAME    = EARTH
REF_FRAME      = TEME
TIME_SYSTEM    = UTC
MEAN_ELEMENT_THEORY = SGP/SGP4

EPOCH          = 2025-11-04T02:52:17.854176
MEAN_MOTION    = 14.79220656
ECCENTRICITY   = .0005108
INCLINATION    = 97.7255
RA_OF_ASC_NODE = 338.9497
ARG_OF_PERICENTER = 270.6679
MEAN_ANOMALY   = 157.0624

EPHEMERIS_TYPE = 0
CLASSIFICATION_TYPE = U
NORAD_CAT_ID   = 23343
ELEMENT_SET_NO = 999
REV_AT_EPOCH   = 66868
BSTAR          = .84933E-4
MEAN_MOTION_DOT = .581E-5
MEAN_MOTION_DDOT = 0

CCSDS_OMM_VERS = 2.0
CREATION_DATE  = 
ORIGINATOR     = 

OBJECT_NAME    = SL-16 R/B
OBJECT_ID      = 1994-077B
CENTER_NAME    = EARTH
REF_FRAME      = TEME
TIME_SYSTEM    = UTC
MEAN_ELEMENT_THEORY = SGP/SGP4

EPOCH          = 2025-11-04T03:00:15.177888
MEAN_MOTION    = 14.15538676
ECCENTRICITY   = .0003526
INCLINATION    = 70.9816
RA_OF_ASC_NODE = 256.6458
ARG_OF_PERICENTER = 315.2137
MEAN_ANOMALY   = 44.8700

EPHEMERIS_TYPE = 0
CLASSIFICATION_TYPE = U
NORAD_CAT_ID   = 23405
ELEMENT_SET_NO = 999
REV_AT_EPOCH   = 59846
BSTAR          = .77106E-4
MEAN_MOTION_DOT = .103E-5
MEAN_MOTION_DDOT = 0

CCSDS_OMM_VERS = 2.0
CREATION_DATE  = 
ORIGINATOR     = 

OBJECT_NAME    = ARIANE 40+ R/B
OBJECT_ID      = 1995-021B
CENTER_NAME    = EARTH
REF_FRAME      = TEME
TIME_SYSTEM    = UTC
MEAN_ELEMENT_THEORY = SGP/SGP4

EPOCH          = 2025-11-04T03:53:56.251968
MEAN_MOTION    = 14.39648408
ECCENTRICITY   = .0007388
INCLINATION    = 98.4697
RA_OF_ASC_NODE = 16.2095
ARG_OF_PERICENTER = 150.3437
MEAN_ANOMALY   = 263.4553

EPHEMERIS_TYPE = 0
CLASSIFICATION_TYPE = U
NORAD_CAT_ID   = 23561
ELEMENT_SET_NO = 999
REV_AT_EPOCH   = 60118
BSTAR          = .13919E-3
MEAN_MOTION_DOT = .392E-5
MEAN_MOTION_DDOT = 0

CCSDS_OMM_VERS = 2.0
CREATION_DATE  = 
ORIGINATOR     = 

OBJECT_NAME    = SL-16 R/B
OBJECT_ID      = 1995-058B
CENTER_NAME    = EARTH
REF_FRAME      = TEME
TIME_SYSTEM    = UTC
MEAN_ELEMENT_THEORY = SGP/SGP4

EPOCH          = 2025-11-04T03:01:21.191808
MEAN_MOTION    = 14.15473439
ECCENTRICITY   = .0014353
INCLINATION    = 71.0206
RA_OF_ASC_NODE = 83.8698
ARG_OF_PERICENTER = 305.4522
MEAN_ANOMALY   = 54.5260

EPHEMERIS_TYPE = 0
CLASSIFICATION_TYPE = U
NORAD_CAT_ID   = 23705
ELEMENT_SET_NO = 999
REV_AT_EPOCH   = 55008
BSTAR          = .16403E-3
MEAN_MOTION_DOT = .273E-5
MEAN_MOTION_DDOT = 0

